IRIDIUM 159             
1 43578U 18061K   25109.85086099  .00000430  00000+0  14657-3 0  9997
2 43578  86.3982 233.5550 0002289  93.6536 266.4922 14.34216436352703
IRIDIUM 180             
1 43922U 19002A   25109.78059013  .00000066  00000+0  16630-4 0  9993
2 43922  86.4019 170.5679 0002252  92.2784 267.8669 14.34217928328309
IRIDIUM 176             
1 43923U 19002B   25109.72018412  .00001337  00000+0  20821-3 0  9994
2 43923  86.6208 170.5875 0003047  69.8293 290.3252 14.72237945336949
IRIDIUM 168             
1 43924U 19002C   25109.56493992  .00000291  00000+0  96991-4 0  9997
2 43924  86.4023 170.7235 0002295  95.6929 264.4528 14.34217558328251
IRIDIUM 173             
1 43925U 19002D   25109.69179440  .00000366  00000+0  12360-3 0  9991
2 43925  86.4024 170.5773 0002262  90.1935 269.9520 14.34215085328254
IRIDIUM 169             
1 43926U 19002E   25109.79671151  .00000631  00000+0  19977-3 0  9995
2 43926  86.4290 202.0961 0000770 113.0665 247.0614 14.38608709329353
IRIDIUM 172             
1 43927U 19002F   25109.68544984  .00000374  00000+0  12639-3 0  9999
2 43927  86.4019 170.5857 0002475  88.9767 271.1712 14.34218716328260
IRIDIUM 175             
1 43928U 19002G   25109.51112604  .00000501  00000+0  75549-4 0  9994
2 43928  86.1475 126.5474 0002065 116.7751 243.3677 14.72241792336901
